{
  "type": "FeatureCollection",
  "features": [
    {
      "type": "Feature",
      "properties": {
        "norad_id": 2807,
        "name": "OPS 7218 (TRANSIT 16)",
        "group": "nnss",
        "lat": 62.202058683141374,
        "lon": -5.037637705090484,
        "alt_km": 1060.3677832916946,
        "timestamp": "2025-12-02T21:34:01.539562+00:00",
        "meta_object_name": "OPS 7218 (TRANSIT 16)",
        "meta_object_id": "1967-048A",
        "meta_epoch": "2025-12-02T11:11:00.710880",
        "meta_mean_motion": 13.50719195,
        "meta_eccentricity": 0.002141,
        "meta_inclination": 89.6736,
        "meta_ra_of_asc_node": 354.3571,
        "meta_arg_of_pericenter": 141.7848,
        "meta_mean_anomaly": 338.1682,
        "meta_ephemeris_type": 0,
        "meta_classification_type": "U",
        "meta_norad_cat_id": 2807,
        "meta_element_set_no": 999,
        "meta_rev_at_epoch": 88137,
        "meta_bstar": 0.00021633,
        "meta_mean_motion_dot": 1.5e-06,
        "meta_mean_motion_ddot": 0,
        "tle_line1": "1 02807U 67048A   25336.46598045  .00000150  00000+0  21633-3 0  9995",
        "tle_line2": "2 02807  89.6736 354.3571 0021410 141.7848 338.1682 13.50719195881376"
      },
      "geometry": {
        "type": "Point",
        "coordinates": [
          -5.037637705090484,
          62.202058683141374
        ]
      }
    },
    {
      "type": "Feature",
      "properties": {
        "norad_id": 2965,
        "name": "OPS 4947 (TRANSIT 17)",
        "group": "nnss",
        "lat": 30.671311662388703,
        "lon": 25.630526886822103,
        "alt_km": 1078.160543046447,
        "timestamp": "2025-12-02T21:34:01.539598+00:00",
        "meta_object_name": "OPS 4947 (TRANSIT 17)",
        "meta_object_id": "1967-092A",
        "meta_epoch": "2025-12-02T09:03:20.391840",
        "meta_mean_motion": 13.53449654,
        "meta_eccentricity": 0.0045748,
        "meta_inclination": 89.2508,
        "meta_ra_of_asc_node": 25.2255,
        "meta_arg_of_pericenter": 265.6723,
        "meta_mean_anomaly": 106.1501,
        "meta_ephemeris_type": 0,
        "meta_classification_type": "U",
        "meta_norad_cat_id": 2965,
        "meta_element_set_no": 999,
        "meta_rev_at_epoch": 86957,
        "meta_bstar": 0.00022513,
        "meta_mean_motion_dot": 1.63e-06,
        "meta_mean_motion_ddot": 0,
        "tle_line1": "1 02965U 67092A   25336.37731935  .00000163  00000+0  22513-3 0  9998",
        "tle_line2": "2 02965  89.2508  25.2255 0045748 265.6723 106.1501 13.53449654869579"
      },
      "geometry": {
        "type": "Point",
        "coordinates": [
          25.630526886822103,
          30.671311662388703
        ]
      }
    },
    {
      "type": "Feature",
      "properties": {
        "norad_id": 3133,
        "name": "OPS 7034 (TRANSIT 18)",
        "group": "nnss",
        "lat": -67.02369561794595,
        "lon": 93.54822384021317,
        "alt_km": 1038.153749794902,
        "timestamp": "2025-12-02T21:34:01.539611+00:00",
        "meta_object_name": "OPS 7034 (TRANSIT 18)",
        "meta_object_id": "1968-012A",
        "meta_epoch": "2025-12-02T10:18:21.710880",
        "meta_mean_motion": 13.51562147,
        "meta_eccentricity": 0.007289,
        "meta_inclination": 90.0268,
        "meta_ra_of_asc_node": 273.6102,
        "meta_arg_of_pericenter": 199.1564,
        "meta_mean_anomaly": 285.5442,
        "meta_ephemeris_type": 0,
        "meta_classification_type": "U",
        "meta_norad_cat_id": 3133,
        "meta_element_set_no": 999,
        "meta_rev_at_epoch": 56779,
        "meta_bstar": 0.00015811,
        "meta_mean_motion_dot": 1.14e-06,
        "meta_mean_motion_ddot": 0,
        "tle_line1": "1 03133U 68012A   25336.42941795  .00000114  00000+0  15811-3 0  9991",
        "tle_line2": "2 03133  90.0268 273.6102 0072890 199.1564 285.5442 13.51562147567798"
      },
      "geometry": {
        "type": "Point",
        "coordinates": [
          93.54822384021317,
          -67.02369561794595
        ]
      }
    },
    {
      "type": "Feature",
      "properties": {
        "norad_id": 4507,
        "name": "NNSS 19 (TRANSIT 19)",
        "group": "nnss",
        "lat": -44.8353946750254,
        "lon": 54.52119060564118,
        "alt_km": 1088.3766811410778,
        "timestamp": "2025-12-02T21:34:01.539622+00:00",
        "meta_object_name": "NNSS 19 (TRANSIT 19)",
        "meta_object_id": "1970-067A",
        "meta_epoch": "2025-12-02T06:13:33.729024",
        "meta_mean_motion": 13.51310727,
        "meta_eccentricity": 0.0171277,
        "meta_inclination": 90.0056,
        "meta_ra_of_asc_node": 234.5264,
        "meta_arg_of_pericenter": 323.954,
        "meta_mean_anomaly": 35.0158,
        "meta_ephemeris_type": 0,
        "meta_classification_type": "U",
        "meta_norad_cat_id": 4507,
        "meta_element_set_no": 999,
        "meta_rev_at_epoch": 72080,
        "meta_bstar": 0.00025983,
        "meta_mean_motion_dot": 1.93e-06,
        "meta_mean_motion_ddot": 0,
        "tle_line1": "1 04507U 70067A   25336.25941816  .00000193  00000+0  25983-3 0  9993",
        "tle_line2": "2 04507  90.0056 234.5264 0171277 323.9540  35.0158 13.51310727720804"
      },
      "geometry": {
        "type": "Point",
        "coordinates": [
          54.52119060564118,
          -44.8353946750254
        ]
      }
    },
    {
      "type": "Feature",
      "properties": {
        "norad_id": 6909,
        "name": "NNSS 20 (TRANSIT 20)",
        "group": "nnss",
        "lat": -53.0593613403545,
        "lon": -104.9906473378498,
        "alt_km": 1109.9990427059774,
        "timestamp": "2025-12-02T21:34:01.539633+00:00",
        "meta_object_name": "NNSS 20 (TRANSIT 20)",
        "meta_object_id": "1973-081A",
        "meta_epoch": "2025-12-02T07:49:19.824096",
        "meta_mean_motion": 13.71427094,
        "meta_eccentricity": 0.0156436,
        "meta_inclination": 89.8555,
        "meta_ra_of_asc_node": 255.2103,
        "meta_arg_of_pericenter": 109.1576,
        "meta_mean_anomaly": 252.6594,
        "meta_ephemeris_type": 0,
        "meta_classification_type": "U",
        "meta_norad_cat_id": 6909,
        "meta_element_set_no": 999,
        "meta_rev_at_epoch": 80218,
        "meta_bstar": 0.00026505,
        "meta_mean_motion_dot": 2.72e-06,
        "meta_mean_motion_ddot": 0,
        "tle_line1": "1 06909U 73081A   25336.32592389  .00000272  00000+0  26505-3 0  9994",
        "tle_line2": "2 06909  89.8555 255.2103 0156436 109.1576 252.6594 13.71427094802188"
      },
      "geometry": {
        "type": "Point",
        "coordinates": [
          -104.9906473378498,
          -53.0593613403545
        ]
      }
    },
    {
      "type": "Feature",
      "properties": {
        "norad_id": 10457,
        "name": "TRANSAT",
        "group": "nnss",
        "lat": -44.27411718504579,
        "lon": 78.60216970396581,
        "alt_km": 1085.1422169212974,
        "timestamp": "2025-12-02T21:34:01.539644+00:00",
        "meta_object_name": "TRANSAT",
        "meta_object_id": "1977-106A",
        "meta_epoch": "2025-12-02T12:56:25.780128",
        "meta_mean_motion": 13.48941012,
        "meta_eccentricity": 0.0024482,
        "meta_inclination": 89.6482,
        "meta_ra_of_asc_node": 78.9581,
        "meta_arg_of_pericenter": 219.6413,
        "meta_mean_anomaly": 151.4139,
        "meta_ephemeris_type": 0,
        "meta_classification_type": "U",
        "meta_norad_cat_id": 10457,
        "meta_element_set_no": 999,
        "meta_rev_at_epoch": 36606,
        "meta_bstar": 0.00012611,
        "meta_mean_motion_dot": 8.9e-07,
        "meta_mean_motion_ddot": 0,
        "tle_line1": "1 10457U 77106A   25336.53918727  .00000089  00000+0  12611-3 0  9999",
        "tle_line2": "2 10457  89.6482  78.9581 0024482 219.6413 151.4139 13.48941012366068"
      },
      "geometry": {
        "type": "Point",
        "coordinates": [
          78.60216970396581,
          -44.27411718504579
        ]
      }
    },
    {
      "type": "Feature",
      "properties": {
        "norad_id": 12458,
        "name": "NOVA 1",
        "group": "nnss",
        "lat": 44.82474604576729,
        "lon": 91.6712038653798,
        "alt_km": 1167.011288334047,
        "timestamp": "2025-12-02T21:34:01.539654+00:00",
        "meta_object_name": "NOVA 1",
        "meta_object_id": "1981-044A",
        "meta_epoch": "2025-12-02T08:56:29.487264",
        "meta_mean_motion": 13.23276723,
        "meta_eccentricity": 0.0015562,
        "meta_inclination": 89.8522,
        "meta_ra_of_asc_node": 91.5317,
        "meta_arg_of_pericenter": 129.5361,
        "meta_mean_anomaly": 290.9236,
        "meta_ephemeris_type": 0,
        "meta_classification_type": "U",
        "meta_norad_cat_id": 12458,
        "meta_element_set_no": 999,
        "meta_rev_at_epoch": 15049,
        "meta_bstar": 0.00014149,
        "meta_mean_motion_dot": 6.9e-07,
        "meta_mean_motion_ddot": 0,
        "tle_line1": "1 12458U 81044A   25336.37256351  .00000069  00000+0  14149-3 0  9994",
        "tle_line2": "2 12458  89.8522  91.5317 0015562 129.5361 290.9236 13.23276723150494"
      },
      "geometry": {
        "type": "Point",
        "coordinates": [
          91.6712038653798,
          44.82474604576729
        ]
      }
    }
  ]
}